{
  "type": "FeatureCollection",
  "features": [
    {
      "type": "Feature",
      "properties": {
        "norad_id": 46277,
        "name": "NEMO-HD",
        "group": "resource",
        "lat": -58.81462834059926,
        "lon": -136.63340104646045,
        "alt_km": 452.61366660448675,
        "timestamp": "2025-12-22T11:33:20.087190+00:00",
        "meta_object_name": "NEMO-HD",
        "meta_object_id": "2020-061F",
        "meta_epoch": "2025-12-22T04:16:59.571264",
        "meta_mean_motion": 15.40509187,
        "meta_eccentricity": 0.0001274,
        "meta_inclination": 97.2196,
        "meta_ra_of_asc_node": 55.1568,
        "meta_arg_of_pericenter": 51.9778,
        "meta_mean_anomaly": 308.1584,
        "meta_ephemeris_type": 0,
        "meta_classification_type": "U",
        "meta_norad_cat_id": 46277,
        "meta_element_set_no": 999,
        "meta_rev_at_epoch": 29469,
        "meta_bstar": 0.00027619,
        "meta_mean_motion_dot": 0.00011126,
        "meta_mean_motion_ddot": 0,
        "tle_line1": "1 46277U 20061F   25356.17846726  .00011126  00000+0  27619-3 0  9995",
        "tle_line2": "2 46277  97.2196  55.1568 0001274  51.9778 308.1584 15.40509187294692"
      },
      "geometry": {
        "type": "Point",
        "coordinates": [
          -136.63340104646045,
          -58.81462834059926
        ]
      }
    },
    {
      "type": "Feature",
      "properties": {
        "norad_id": 46984,
        "name": "SENTINEL-6A",
        "group": "resource",
        "lat": 15.781248210187671,
        "lon": 149.29363396662967,
        "alt_km": 1339.269086502938,
        "timestamp": "2025-12-22T11:33:20.087201+00:00",
        "meta_object_name": "SENTINEL-6A",
        "meta_object_id": "2020-086A",
        "meta_epoch": "2025-12-21T18:36:03.861216",
        "meta_mean_motion": 12.80930825,
        "meta_eccentricity": 0.0007721,
        "meta_inclination": 66.0396,
        "meta_ra_of_asc_node": 143.5414,
        "meta_arg_of_pericenter": 269.3497,
        "meta_mean_anomaly": 90.6633,
        "meta_ephemeris_type": 0,
        "meta_classification_type": "U",
        "meta_norad_cat_id": 46984,
        "meta_element_set_no": 999,
        "meta_rev_at_epoch": 23760,
        "meta_bstar": -4.0051e-05,
        "meta_mean_motion_dot": -7e-07,
        "meta_mean_motion_ddot": 0,
        "tle_line1": "1 46984U 20086A   25355.77504469 -.00000070  00000+0 -40051-4 0  9991",
        "tle_line2": "2 46984  66.0396 143.5414 0007721 269.3497  90.6633 12.80930825237605"
      },
      "geometry": {
        "type": "Point",
        "coordinates": [
          149.29363396662967,
          15.781248210187671
        ]
      }
    },
    {
      "type": "Feature",
      "properties": {
        "norad_id": 48079,
        "name": "GAOFEN-12 02",
        "group": "resource",
        "lat": 48.79914912564571,
        "lon": -18.785975556917457,
        "alt_km": 620.6294586188387,
        "timestamp": "2025-12-22T11:33:20.087211+00:00",
        "meta_object_name": "GAOFEN-12 02",
        "meta_object_id": "2021-026A",
        "meta_epoch": "2025-12-22T04:50:44.529792",
        "meta_mean_motion": 14.80685902,
        "meta_eccentricity": 0.0003598,
        "meta_inclination": 97.9855,
        "meta_ra_of_asc_node": 350.1628,
        "meta_arg_of_pericenter": 82.1799,
        "meta_mean_anomaly": 277.9822,
        "meta_ephemeris_type": 0,
        "meta_classification_type": "U",
        "meta_norad_cat_id": 48079,
        "meta_element_set_no": 999,
        "meta_rev_at_epoch": 25557,
        "meta_bstar": 6.7094e-05,
        "meta_mean_motion_dot": 4.63e-06,
        "meta_mean_motion_ddot": 0,
        "tle_line1": "1 48079U 21026A   25356.20190428  .00000463  00000+0  67094-4 0  9998",
        "tle_line2": "2 48079  97.9855 350.1628 0003598  82.1799 277.9822 14.80685902255573"
      },
      "geometry": {
        "type": "Point",
        "coordinates": [
          -18.785975556917457,
          48.79914912564571
        ]
      }
    },
    {
      "type": "Feature",
      "properties": {
        "norad_id": 48268,
        "name": "PLEIADES NEO 3",
        "group": "resource",
        "lat": 28.407792236569904,
        "lon": -106.91272214637004,
        "alt_km": 622.336009516187,
        "timestamp": "2025-12-22T11:33:20.087221+00:00",
        "meta_object_name": "PLEIADES NEO 3",
        "meta_object_id": "2021-034A",
        "meta_epoch": "2025-12-22T04:23:32.839008",
        "meta_mean_motion": 14.81674956,
        "meta_eccentricity": 0.0001397,
        "meta_inclination": 97.8949,
        "meta_ra_of_asc_node": 68.4888,
        "meta_arg_of_pericenter": 90.17,
        "meta_mean_anomaly": 269.9673,
        "meta_ephemeris_type": 0,
        "meta_classification_type": "U",
        "meta_norad_cat_id": 48268,
        "meta_element_set_no": 999,
        "meta_rev_at_epoch": 25144,
        "meta_bstar": 5.6588e-05,
        "meta_mean_motion_dot": 3.93e-06,
        "meta_mean_motion_ddot": 0,
        "tle_line1": "1 48268U 21034A   25356.18301897  .00000393  00000+0  56588-4 0  9996",
        "tle_line2": "2 48268  97.8949  68.4888 0001397  90.1700 269.9673 14.81674956251444"
      },
      "geometry": {
        "type": "Point",
        "coordinates": [
          -106.91272214637004,
          28.407792236569904
        ]
      }
    },
    {
      "type": "Feature",
      "properties": {
        "norad_id": 49070,
        "name": "PLEIADES NEO 4",
        "group": "resource",
        "lat": -28.600319442132022,
        "lon": 73.11812693049502,
        "alt_km": 630.2986738641594,
        "timestamp": "2025-12-22T11:33:20.087232+00:00",
        "meta_object_name": "PLEIADES NEO 4",
        "meta_object_id": "2021-073E",
        "meta_epoch": "2025-12-20T17:32:43.601280",
        "meta_mean_motion": 14.81672177,
        "meta_eccentricity": 0.00013249,
        "meta_inclination": 97.8951,
        "meta_ra_of_asc_node": 67.0538,
        "meta_arg_of_pericenter": 89.6187,
        "meta_mean_anomaly": 270.5178,
        "meta_ephemeris_type": 0,
        "meta_classification_type": "U",
        "meta_norad_cat_id": 49070,
        "meta_element_set_no": 999,
        "meta_rev_at_epoch": 23494,
        "meta_bstar": -3.6645539e-05,
        "meta_mean_motion_dot": -3.4e-06,
        "meta_mean_motion_ddot": 0,
        "tle_line1": "1 49070U 21073E   25354.73106020 -.00000340  00000+0 -36646-4 0  9998",
        "tle_line2": "2 49070  97.8951  67.0538 0001324  89.6187 270.5178 14.81672177234945"
      },
      "geometry": {
        "type": "Point",
        "coordinates": [
          73.11812693049502,
          -28.600319442132022
        ]
      }
    },
    {
      "type": "Feature",
      "properties": {
        "norad_id": 49260,
        "name": "LANDSAT 9",
        "group": "resource",
        "lat": -27.52094449913233,
        "lon": -119.86240010205219,
        "alt_km": 708.6511621149857,
        "timestamp": "2025-12-22T11:33:20.087242+00:00",
        "meta_object_name": "LANDSAT 9",
        "meta_object_id": "2021-088A",
        "meta_epoch": "2025-12-22T04:00:46.819584",
        "meta_mean_motion": 14.57107311,
        "meta_eccentricity": 0.0001097,
        "meta_inclination": 98.2082,
        "meta_ra_of_asc_node": 64.1411,
        "meta_arg_of_pericenter": 92.1873,
        "meta_mean_anomaly": 267.9451,
        "meta_ephemeris_type": 0,
        "meta_classification_type": "U",
        "meta_norad_cat_id": 49260,
        "meta_element_set_no": 999,
        "meta_rev_at_epoch": 22522,
        "meta_bstar": 0.00010286,
        "meta_mean_motion_dot": 4.18e-06,
        "meta_mean_motion_ddot": 0,
        "tle_line1": "1 49260U 21088A   25356.16720856  .00000418  00000+0  10286-3 0  9998",
        "tle_line2": "2 49260  98.2082  64.1411 0001097  92.1873 267.9451 14.57107311225223"
      },
      "geometry": {
        "type": "Point",
        "coordinates": [
          -119.86240010205219,
          -27.52094449913233
        ]
      }
    },
    {
      "type": "Feature",
      "properties": {
        "norad_id": 51444,
        "name": "CSG-2",
        "group": "resource",
        "lat": 20.34906230728546,
        "lon": 174.71271381809265,
        "alt_km": 622.0812441288208,
        "timestamp": "2025-12-22T11:33:20.087252+00:00",
        "meta_object_name": "CSG-2",
        "meta_object_id": "2022-008A",
        "meta_epoch": "2025-12-22T03:21:42.727968",
        "meta_mean_motion": 14.82152996,
        "meta_eccentricity": 0.0001479,
        "meta_inclination": 97.8799,
        "meta_ra_of_asc_node": 177.321,
        "meta_arg_of_pericenter": 83.0702,
        "meta_mean_anomaly": 277.0679,
        "meta_ephemeris_type": 0,
        "meta_classification_type": "U",
        "meta_norad_cat_id": 51444,
        "meta_element_set_no": 999,
        "meta_rev_at_epoch": 21036,
        "meta_bstar": 8.6697e-05,
        "meta_mean_motion_dot": 6.38e-06,
        "meta_mean_motion_ddot": 0,
        "tle_line1": "1 51444U 22008A   25356.14007787  .00000638  00000+0  86697-4 0  9991",
        "tle_line2": "2 51444  97.8799 177.3210 0001479  83.0702 277.0679 14.82152996210368"
      },
      "geometry": {
        "type": "Point",
        "coordinates": [
          174.71271381809265,
          20.34906230728546
        ]
      }
    }
  ]
}